{"type": "FeatureCollection", "features": [ {"type": "Feature", "properties": {"norad_id": 52912, "name": "GAOFEN-12 03", "group": "resource", "lat": 20.14810172004825, "lon": -117.41420438544482, "alt_km": 629.3810701479151, "timestamp": "2025-12-24T09:46:30.653330+00:00", "meta": {"OBJECT_NAME": "GAOFEN-12 03", "OBJECT_ID": "2022-069A", "EPOCH": "2025-12-24T04:48:52.221888", "MEAN_MOTION": 14.79637652, "ECCENTRICITY": 0.0001881, "INCLINATION": 97.848, "RA_OF_ASC_NODE": 245.2847, "ARG_OF_PERICENTER": 49.7028, "MEAN_ANOMALY": 310.4348, "EPHEMERIS_TYPE": 0, "CLASSIFICATION_TYPE": "U", "NORAD_CAT_ID": 52912, "ELEMENT_SET_NO": 999, "REV_AT_EPOCH": 18873, "BSTAR": 0.00025816, "MEAN_MOTION_DOT": 1.885e-05, "MEAN_MOTION_DDOT": 0}, "tle": {"line1": "1 52912U 22069A   25358.20060442  .00001885  00000+0  25816-3 0  9995", "line2": "2 52912  97.8480 245.2847 0001881  49.7028 310.4348 14.79637652188737"}}, "geometry": {"type": "Point", "coordinates": [-117.41420438544482, 20.14810172004825]}}, {"type": "Feature", "properties": {"norad_id": 54754, "name": "SWOT", "group": "resource", "lat": -77.4862143076448, "lon": 173.26834924381293, "alt_km": 900.6699052604718, "timestamp": "2025-12-24T09:46:30.653340+00:00", "meta": {"OBJECT_NAME": "SWOT", "OBJECT_ID": "2022-173A", "EPOCH": "2025-12-24T03:21:11.085696", "MEAN_MOTION": 14.00168514, "ECCENTRICITY": 3.96e-05, "INCLINATION": 77.6109, "RA_OF_ASC_NODE": 271.6015, "ARG_OF_PERICENTER": 82.8142, "MEAN_ANOMALY": 277.3055, "EPHEMERIS_TYPE": 0, "CLASSIFICATION_TYPE": "U", "NORAD_CAT_ID": 54754, "ELEMENT_SET_NO": 999, "REV_AT_EPOCH": 15465, "BSTAR": 5.7679e-05, "MEAN_MOTION_DOT": 8.3e-07, "MEAN_MOTION_DDOT": 0}, "tle": {"line1": "1 54754U 22173A   25358.13971164  .00000083  00000+0  57679-4 0  9993", "line2": "2 54754  77.6109 271.6015 0000396  82.8142 277.3055 14.00168514154652"}}, "geometry": {"type": "Point", "coordinates": [173.26834924381293, -77.4862143076448]}}, {"type": "Feature", "properties": {"norad_id": 57654, "name": "GAOFEN-12 04", "group": "resource", "lat": -14.06124753623301, "lon": 91.99153514806282, "alt_km": 635.1913100263318, "timestamp": "2025-12-24T09:46:30.653351+00:00", "meta": {"OBJECT_NAME": "GAOFEN-12 04", "OBJECT_ID": "2023-123A", "EPOCH": "2025-12-24T04:01:55.974144", "MEAN_MOTION": 14.79731577, "ECCENTRICITY": 0.0001206, "INCLINATION": 97.9128, "RA_OF_ASC_NODE": 273.7522, "ARG_OF_PERICENTER": 79.0173, "MEAN_ANOMALY": 281.1174, "EPHEMERIS_TYPE": 0, "CLASSIFICATION_TYPE": "U", "NORAD_CAT_ID": 57654, "ELEMENT_SET_NO": 999, "REV_AT_EPOCH": 12674, "BSTAR": 0.00018524, "MEAN_MOTION_DOT": 1.341e-05, "MEAN_MOTION_DDOT": 0}, "tle": {"line1": "1 57654U 23123A   25358.16800896  .00001341  00000+0  18524-3 0  9990", "line2": "2 57654  97.9128 273.7522 0001206  79.0173 281.1174 14.79731577126744"}}, "geometry": {"type": "Point", "coordinates": [91.99153514806282, -14.06124753623301]}}, {"type": "Feature", "properties": {"norad_id": 59065, "name": "PARS 1", "group": "resource", "lat": -73.53166723605476, "lon": -4.07727158164771, "alt_km": 452.7388730087878, "timestamp": "2025-12-24T09:46:30.653362+00:00", "meta": {"OBJECT_NAME": "PARS 1", "OBJECT_ID": "2024-039Q", "EPOCH": "2025-12-24T03:52:06.180960", "MEAN_MOTION": 15.41226375, "ECCENTRICITY": 0.0011682, "INCLINATION": 97.4653, "RA_OF_ASC_NODE": 329.3383, "ARG_OF_PERICENTER": 37.3402, "MEAN_ANOMALY": 322.8654, "EPHEMERIS_TYPE": 0, "CLASSIFICATION_TYPE": "U", "NORAD_CAT_ID": 59065, "ELEMENT_SET_NO": 999, "REV_AT_EPOCH": 10164, "BSTAR": 0.00030555, "MEAN_MOTION_DOT": 0.00012641, "MEAN_MOTION_DDOT": 0}, "tle": {"line1": "1 59065U 24039Q   25358.16118265  .00012641  00000+0  30555-3 0  9990", "line2": "2 59065  97.4653 329.3383 0011682  37.3402 322.8654 15.41226375101647"}}, "geometry": {"type": "Point", "coordinates": [-4.07727158164771, -73.53166723605476]}}, {"type": "Feature", "properties": {"norad_id": 59371, "name": "RESURS-P 4", "group": "resource", "lat": 49.83883658163153, "lon": -64.18495347195554, "alt_km": 464.2906481506734, "timestamp": "2025-12-24T09:46:30.653373+00:00", "meta": {"OBJECT_NAME": "RESURS-P 4", "OBJECT_ID": "2024-061A", "EPOCH": "2025-12-24T04:51:13.746816", "MEAN_MOTION": 15.32185933, "ECCENTRICITY": 8.23e-05, "INCLINATION": 97.2565, "RA_OF_ASC_NODE": 304.2984, "ARG_OF_PERICENTER": 75.4994, "MEAN_ANOMALY": 284.6339, "EPHEMERIS_TYPE": 0, "CLASSIFICATION_TYPE": "U", "NORAD_CAT_ID": 59371, "ELEMENT_SET_NO": 999, "REV_AT_EPOCH": 9696, "BSTAR": 0.00015084, "MEAN_MOTION_DOT": 4.611e-05, "MEAN_MOTION_DDOT": 0}, "tle": {"line1": "1 59371U 24061A   25358.20224244  .00004611  00000+0  15084-3 0  9993", "line2": "2 59371  97.2565 304.2984 0000823  75.4994 284.6339 15.32185933 96967"}}, "geometry": {"type": "Point", "coordinates": [-64.18495347195554, 49.83883658163153]}}, {"type": "Feature", "properties": {"norad_id": 59625, "name": "LEGION 1", "group": "resource", "lat": -18.247885151291268, "lon": 75.44241181261373, "alt_km": 520.7713065223716, "timestamp": "2025-12-24T09:46:30.653383+00:00", "meta": {"OBJECT_NAME": "LEGION 1", "OBJECT_ID": "2024-081A", "EPOCH": "2025-12-24T03:31:19.779744", "MEAN_MOTION": 15.16588049, "ECCENTRICITY": 0.0003605, "INCLINATION": 97.5198, "RA_OF_ASC_NODE": 72.6879, "ARG_OF_PERICENTER": 264.0593, "MEAN_ANOMALY": 96.0229, "EPHEMERIS_TYPE": 0, "CLASSIFICATION_TYPE": "U", "NORAD_CAT_ID": 59625, "ELEMENT_SET_NO": 999, "REV_AT_EPOCH": 9100, "BSTAR": 0.00028358, "MEAN_MOTION_DOT": 5.472e-05, "MEAN_MOTION_DDOT": 0}, "tle": {"line1": "1 59625U 24081A   25358.14675671  .00005472  00000+0  28358-3 0  9998", "line2": "2 59625  97.5198  72.6879 0003605 264.0593  96.0229 15.16588049 91005"}}, "geometry": {"type": "Point", "coordinates": [75.44241181261373, -18.247885151291268]}}, {"type": "Feature", "properties": {"norad_id": 59626, "name": "LEGION 2", "group": "resource", "lat": 17.81858950189406, "lon": -104.53232419458288, "alt_km": 516.0183828320705, "timestamp": "2025-12-24T09:46:30.653394+00:00", "meta": {"OBJECT_NAME": "LEGION 2", "OBJECT_ID": "2024-081B", "EPOCH": "2025-12-24T02:43:44.561280", "MEAN_MOTION": 15.16599796, "ECCENTRICITY": 0.0005737, "INCLINATION": 97.52, "RA_OF_ASC_NODE": 72.7431, "ARG_OF_PERICENTER": 244.3388, "MEAN_ANOMALY": 115.7253, "EPHEMERIS_TYPE": 0, "CLASSIFICATION_TYPE": "U", "NORAD_CAT_ID": 59626, "ELEMENT_SET_NO": 999, "REV_AT_EPOCH": 9100, "BSTAR": 0.00027216, "MEAN_MOTION_DOT": 5.251e-05, "MEAN_MOTION_DDOT": 0}, "tle": {"line1": "1 59626U 24081B   25358.11371020  .00005251  00000+0  27216-3 0  9994", "line2": "2 59626  97.5200  72.7431 0005737 244.3388 115.7253 15.16599796 91003"}}, "geometry": {"type": "Point", "coordinates": [-104.53232419458288, 17.81858950189406]}}, {"type": "Feature", "properties": {"norad_id": 60182, "name": "ALOS-4 (DAICHI-4)", "group": "resource", "lat": 63.36182708108771, "lon": 76.96926919989528, "alt_km": 623.8903511817307, "timestamp": "2025-12-24T09:46:30.653404+00:00", "meta": {"OBJECT_NAME": "ALOS-4 (DAICHI-4)", "OBJECT_ID": "2024-123A", "EPOCH": "2025-12-20T19:27:23.065632", "MEAN_MOTION": 14.79476706, "ECCENTRICITY": 0.00013885, "INCLINATION": 97.9224, "RA_OF_ASC_NODE": 89.5428, "ARG_OF_PERICENTER": 101.3368, "MEAN_ANOMALY": 258.8, "EPHEMERIS_TYPE": 0, "CLASSIFICATION_TYPE": "U", "NORAD_CAT_ID": 60182, "ELEMENT_SET_NO": 999, "REV_AT_EPOCH": 7950, "BSTAR": 0.00018386978, "MEAN_MOTION_DOT": 1.322e-05, "MEAN_MOTION_DDOT": 0}, "tle": {"line1": "1 60182U 24123A   25354.81068363  .00001322  00000+0  18387-3 0  9990", "line2": "2 60182  97.9224  89.5428 0001388 101.3368 258.8000 14.79476706 79505"}}, "geometry": {"type": "Point", "coordinates": [76.96926919989528, 63.36182708108771]}}, {"type": "Feature", "properties": {"norad_id": 60452, "name": "LEGION 3", "group": "resource", "lat": -42.6634365546622, "lon": -179.67352142060432, "alt_km": 512.145902606544, "timestamp": "2025-12-24T09:46:30.653415+00:00", "meta": {"OBJECT_NAME": "LEGION 3", "OBJECT_ID": "2024-146A", "EPOCH": "2025-12-24T02:11:23.440992", "MEAN_MOTION": 15.15871125, "ECCENTRICITY": 0.0015717, "INCLINATION": 45.0003, "RA_OF_ASC_NODE": 249.2752, "ARG_OF_PERICENTER": 259.2178, "MEAN_ANOMALY": 100.6932, "EPHEMERIS_TYPE": 0, "CLASSIFICATION_TYPE": "U", "NORAD_CAT_ID": 60452, "ELEMENT_SET_NO": 999, "REV_AT_EPOCH": 7545, "BSTAR": 0.00027461, "MEAN_MOTION_DOT": 5.097e-05, "MEAN_MOTION_DDOT": 0}, "tle": {"line1": "1 60452U 24146A   25358.09124353  .00005097  00000+0  27461-3 0  9997", "line2": "2 60452  45.0003 249.2752 0015717 259.2178 100.6932 15.15871125 75455"}}, "geometry": {"type": "Point", "coordinates": [-179.67352142060432, -42.6634365546622]}}, {"type": "Feature", "properties": {"norad_id": 60453, "name": "LEGION 4", "group": "resource", "lat": -42.924700211105325, "lon": -88.98174699942396, "alt_km": 521.7327148670929, "timestamp": "2025-12-24T09:46:30.653425+00:00", "meta": {"OBJECT_NAME": "LEGION 4", "OBJECT_ID": "2024-146B", "EPOCH": "2025-12-24T02:11:38.408928", "MEAN_MOTION": 15.15940419, "ECCENTRICITY": 0.0008262, "INCLINATION": 45.0394, "RA_OF_ASC_NODE": 341.0576, "ARG_OF_PERICENTER": 13.9832, "MEAN_ANOMALY": 346.1274, "EPHEMERIS_TYPE": 0, "CLASSIFICATION_TYPE": "U", "NORAD_CAT_ID": 60453, "ELEMENT_SET_NO": 999, "REV_AT_EPOCH": 7430, "BSTAR": 0.00033127, "MEAN_MOTION_DOT": 6.204e-05, "MEAN_MOTION_DDOT": 0}, "tle": {"line1": "1 60453U 24146B   25358.09141677  .00006204  00000+0  33127-3 0  9993", "line2": "2 60453  45.0394 341.0576 0008262  13.9832 346.1274 15.15940419 74305"}}, "geometry": {"type": "Point", "coordinates": [-88.98174699942396, -42.924700211105325]}}]}